CCSDS_OMM_VERS = 2.0
CREATION_DATE  = 
ORIGINATOR     = 

OBJECT_NAME    = SL-16 R/B
OBJECT_ID      = 1998-043G
CENTER_NAME    = EARTH
REF_FRAME      = TEME
TIME_SYSTEM    = UTC
MEAN_ELEMENT_THEORY = SGP/SGP4

EPOCH          = 2025-12-10T14:57:31.433472
MEAN_MOTION    = 14.26024791
ECCENTRICITY   = .00087993
INCLINATION    = 98.8121
RA_OF_ASC_NODE = 292.4295
ARG_OF_PERICENTER = 273.6590
MEAN_ANOMALY   = 86.3583

EPHEMERIS_TYPE = 0
CLASSIFICATION_TYPE = U
NORAD_CAT_ID   = 25400
ELEMENT_SET_NO = 999
REV_AT_EPOCH   = 42629
BSTAR          = .83021326E-4
MEAN_MOTION_DOT = .153E-5
MEAN_MOTION_DDOT = 0

CCSDS_OMM_VERS = 2.0
CREATION_DATE  = 
ORIGINATOR     = 

OBJECT_NAME    = SL-16 R/B
OBJECT_ID      = 1998-045B
CENTER_NAME    = EARTH
REF_FRAME      = TEME
TIME_SYSTEM    = UTC
MEAN_ELEMENT_THEORY = SGP/SGP4

EPOCH          = 2025-12-10T10:24:39.450816
MEAN_MOTION    = 14.16175566
ECCENTRICITY   = .00070474
INCLINATION    = 71.0121
RA_OF_ASC_NODE = 9.2766
ARG_OF_PERICENTER = 181.4236
MEAN_ANOMALY   = 178.6869

EPHEMERIS_TYPE = 0
CLASSIFICATION_TYPE = U
NORAD_CAT_ID   = 25407
ELEMENT_SET_NO = 999
REV_AT_EPOCH   = 41446
BSTAR          = -.6497165E-4
MEAN_MOTION_DOT = -.176E-5
MEAN_MOTION_DDOT = 0

CCSDS_OMM_VERS = 2.0
CREATION_DATE  = 
ORIGINATOR     = 

OBJECT_NAME    = ISS (ZARYA)
OBJECT_ID      = 1998-067A
CENTER_NAME    = EARTH
REF_FRAME      = TEME
TIME_SYSTEM    = UTC
MEAN_ELEMENT_THEORY = SGP/SGP4

EPOCH          = 2025-12-10T13:00:09.919872
MEAN_MOTION    = 15.49478601
ECCENTRICITY   = .00033601
INCLINATION    = 51.6308
RA_OF_ASC_NODE = 153.3620
ARG_OF_PERICENTER = 230.7092
MEAN_ANOMALY   = 129.3599

EPHEMERIS_TYPE = 0
CLASSIFICATION_TYPE = U
NORAD_CAT_ID   = 25544
ELEMENT_SET_NO = 999
REV_AT_EPOCH   = 54251
BSTAR          = .2844348E-3
MEAN_MOTION_DOT = .15517E-3
MEAN_MOTION_DDOT = 0

CCSDS_OMM_VERS = 2.0
CREATION_DATE  = 
ORIGINATOR     = 

OBJECT_NAME    = CZ-4B R/B
OBJECT_ID      = 1999-025C
CENTER_NAME    = EARTH
REF_FRAME      = TEME
TIME_SYSTEM    = UTC
MEAN_ELEMENT_THEORY = SGP/SGP4

EPOCH          = 2025-12-10T09:52:01.784928
MEAN_MOTION    = 14.18242690
ECCENTRICITY   = .00362208
INCLINATION    = 98.6772
RA_OF_ASC_NODE = 25.7432
ARG_OF_PERICENTER = 240.8643
MEAN_ANOMALY   = 129.6286

EPHEMERIS_TYPE = 0
CLASSIFICATION_TYPE = U
NORAD_CAT_ID   = 25732
ELEMENT_SET_NO = 999
REV_AT_EPOCH   = 37551
BSTAR          = .76516657E-4
MEAN_MOTION_DOT = .115E-5
MEAN_MOTION_DDOT = 0

CCSDS_OMM_VERS = 2.0
CREATION_DATE  = 
ORIGINATOR     = 

OBJECT_NAME    = OKEAN-O
OBJECT_ID      = 1999-039A
CENTER_NAME    = EARTH
REF_FRAME      = TEME
TIME_SYSTEM    = UTC
MEAN_ELEMENT_THEORY = SGP/SGP4

EPOCH          = 2025-12-10T15:01:54.777216
MEAN_MOTION    = 14.80155882
ECCENTRICITY   = .00008059
INCLINATION    = 97.9604
RA_OF_ASC_NODE = 40.3462
ARG_OF_PERICENTER = 94.2024
MEAN_ANOMALY   = 265.9280

EPHEMERIS_TYPE = 0
CLASSIFICATION_TYPE = U
NORAD_CAT_ID   = 25860
ELEMENT_SET_NO = 999
REV_AT_EPOCH   = 42121
BSTAR          = .1748008E-3
MEAN_MOTION_DOT = .1275E-4
MEAN_MOTION_DDOT = 0

CCSDS_OMM_VERS = 2.0
CREATION_DATE  = 
ORIGINATOR     = 

OBJECT_NAME    = SL-16 R/B
OBJECT_ID      = 1999-039B
CENTER_NAME    = EARTH
REF_FRAME      = TEME
TIME_SYSTEM    = UTC
MEAN_ELEMENT_THEORY = SGP/SGP4

EPOCH          = 2025-12-10T10:05:59.792352
MEAN_MOTION    = 14.81581311
ECCENTRICITY   = .0014745
INCLINATION    = 98.0128
RA_OF_ASC_NODE = 38.5718
ARG_OF_PERICENTER = 182.1760
MEAN_ANOMALY   = 177.9390

EPHEMERIS_TYPE = 0
CLASSIFICATION_TYPE = U
NORAD_CAT_ID   = 25861
ELEMENT_SET_NO = 999
REV_AT_EPOCH   = 42364
BSTAR          = .13885011E-3
MEAN_MOTION_DOT = .1038E-4
MEAN_MOTION_DDOT = 0

CCSDS_OMM_VERS = 2.0
CREATION_DATE  = 
ORIGINATOR     = 

OBJECT_NAME    = DELTA 2 R/B
OBJECT_ID      = 1999-041E
CENTER_NAME    = EARTH
REF_FRAME      = TEME
TIME_SYSTEM    = UTC
MEAN_ELEMENT_THEORY = SGP/SGP4

EPOCH          = 2025-12-10T14:08:37.678272
MEAN_MOTION    = 14.11392009
ECCENTRICITY   = .05047355
INCLINATION    = 51.7616
RA_OF_ASC_NODE = 297.0302
ARG_OF_PERICENTER = 85.4278
MEAN_ANOMALY   = 280.4104

EPHEMERIS_TYPE = 0
CLASSIFICATION_TYPE = U
NORAD_CAT_ID   = 25876
ELEMENT_SET_NO = 999
REV_AT_EPOCH   = 35044
BSTAR          = .29789888E-3
MEAN_MOTION_DOT = .1605E-4
MEAN_MOTION_DDOT = 0

CCSDS_OMM_VERS = 2.0
CREATION_DATE  = 
ORIGINATOR     = 

OBJECT_NAME    = HELIOS 1B
OBJECT_ID      = 1999-064A
CENTER_NAME    = EARTH
REF_FRAME      = TEME
TIME_SYSTEM    = UTC
MEAN_ELEMENT_THEORY = SGP/SGP4

EPOCH          = 2025-12-10T15:36:51.105600
MEAN_MOTION    = 14.87268565
ECCENTRICITY   = .00018195
INCLINATION    = 98.1750
RA_OF_ASC_NODE = 239.2542
ARG_OF_PERICENTER = 45.4246
MEAN_ANOMALY   = 314.7117

EPHEMERIS_TYPE = 0
CLASSIFICATION_TYPE = U
NORAD_CAT_ID   = 25977
ELEMENT_SET_NO = 999
REV_AT_EPOCH   = 67202
BSTAR          = .3894228E-3
MEAN_MOTION_DOT = .3453E-4
MEAN_MOTION_DDOT = 0

CCSDS_OMM_VERS = 2.0
CREATION_DATE  = 
ORIGINATOR     = 

OBJECT_NAME    = TERRA
OBJECT_ID      = 1999-068A
CENTER_NAME    = EARTH
REF_FRAME      = TEME
TIME_SYSTEM    = UTC
MEAN_ELEMENT_THEORY = SGP/SGP4

EPOCH          = 2025-12-10T15:04:50.401632
MEAN_MOTION    = 14.60898090
ECCENTRICITY   = .00035964
INCLINATION    = 97.9752
RA_OF_ASC_NODE = 36.3904
ARG_OF_PERICENTER = 98.6615
MEAN_ANOMALY   = 54.3230

EPHEMERIS_TYPE = 0
CLASSIFICATION_TYPE = U
NORAD_CAT_ID   = 25994
ELEMENT_SET_NO = 999
REV_AT_EPOCH   = 38207
BSTAR          = .15854021E-3
MEAN_MOTION_DOT = .731E-5
MEAN_MOTION_DDOT = 0

CCSDS_OMM_VERS = 2.0
CREATION_DATE  = 
ORIGINATOR     = 

OBJECT_NAME    = SL-16 R/B
OBJECT_ID      = 2000-006B
CENTER_NAME    = EARTH
REF_FRAME      = TEME
TIME_SYSTEM    = UTC
MEAN_ELEMENT_THEORY = SGP/SGP4

EPOCH          = 2025-12-10T06:50:01.421088
MEAN_MOTION    = 14.15810705
ECCENTRICITY   = .0018397
INCLINATION    = 71.0033
RA_OF_ASC_NODE = 285.8189
ARG_OF_PERICENTER = 312.0128
MEAN_ANOMALY   = 47.9428

EPHEMERIS_TYPE = 0
CLASSIFICATION_TYPE = U
NORAD_CAT_ID   = 26070
ELEMENT_SET_NO = 999
REV_AT_EPOCH   = 33590
BSTAR          = .22606E-4
MEAN_MOTION_DOT = -.3E-7
MEAN_MOTION_DDOT = 0

CCSDS_OMM_VERS = 2.0
CREATION_DATE  = 
ORIGINATOR     = 

OBJECT_NAME    = TITAN 4B R/B
OBJECT_ID      = 2000-047B
CENTER_NAME    = EARTH
REF_FRAME      = TEME
TIME_SYSTEM    = UTC
MEAN_ELEMENT_THEORY = SGP/SGP4

EPOCH          = 2025-12-10T13:19:42.896640
MEAN_MOTION    = 15.08753821
ECCENTRICITY   = .00390913
INCLINATION    = 67.9902
RA_OF_ASC_NODE = 290.9898
ARG_OF_PERICENTER = 147.1541
MEAN_ANOMALY   = 213.2049

EPHEMERIS_TYPE = 0
CLASSIFICATION_TYPE = U
NORAD_CAT_ID   = 26474
ELEMENT_SET_NO = 999
REV_AT_EPOCH   = 37946
BSTAR          = .36626505E-3
MEAN_MOTION_DOT = .5737E-4
MEAN_MOTION_DDOT = 0

CCSDS_OMM_VERS = 2.0
CREATION_DATE  = 
ORIGINATOR     = 

OBJECT_NAME    = ENVISAT
OBJECT_ID      = 2002-009A
CENTER_NAME    = EARTH
REF_FRAME      = TEME
TIME_SYSTEM    = UTC
MEAN_ELEMENT_THEORY = SGP/SGP4

EPOCH          = 2025-12-10T15:10:58.807776
MEAN_MOTION    = 14.38998032
ECCENTRICITY   = .00011391
INCLINATION    = 98.3595
RA_OF_ASC_NODE = 295.4265
ARG_OF_PERICENTER = 81.9983
MEAN_ANOMALY   = 91.5469

EPHEMERIS_TYPE = 0
CLASSIFICATION_TYPE = U
NORAD_CAT_ID   = 27386
ELEMENT_SET_NO = 999
REV_AT_EPOCH   = 24636
BSTAR          = .95950487E-4
MEAN_MOTION_DOT = .253E-5
MEAN_MOTION_DDOT = 0

